STARLINK-36545          
1 67505U 26012N   26047.83337963 -.01830884  00000+0 -57683-1 0  9998
2 67505  43.0000  71.9389 0001409 270.6707 136.6515 15.35565721  5723
STARLINK-36553          
1 67506U 26012P   26047.83337963 -.01850769  00000+0 -60710-1 0  9998
2 67506  42.9996  71.8768 0001580 275.7416 155.9901 15.34350254  5724
STARLINK-36521          
1 67507U 26012Q   26047.83337963 -.01846518  00000+0 -59613-1 0  9996
2 67507  42.9998  71.8498 0001483 279.8218 162.8414 15.34838405  5729
STARLINK-36526          
1 67508U 26012R   26047.83337963 -.01862518  00000+0 -58709-1 0  9990
2 67508  42.9994  71.8127 0001581 279.6649 178.2766 15.35608498  5729
STARLINK-36541          
1 67509U 26012S   26045.42889574  .00071950  00000+0  12184-2 0  9991
2 67509  42.9986  86.7186 0000543 353.0224   7.0629 15.50639519  4196
STARLINK-36549          
1 67510U 26012T   26047.83337963 -.01856603  00000+0 -63555-1 0  9996
2 67510  42.9994  71.7740 0001556 282.6235 187.0442 15.33027914  5667
STARLINK-36540          
1 67511U 26012U   26045.49165125  .00095249  00000+0  16087-2 0  9993
2 67511  43.0023  86.3251 0003376 283.9420  76.1065 15.50592337  4207
STARLINK-36538          
1 67512U 26012V   26047.83337963  .00009910  00000+0  36962-3 0  9990
2 67512  43.0006  72.4185 0002093 283.7518 284.7532 15.27538734  5721
STARLINK-36531          
1 67513U 26012W   26047.83337963 -.00004014  00000+0 -13666-3 0  9999
2 67513  43.0003  72.2804 0000856 300.2419 324.9056 15.27521129  5666
STARLINK-36530          
1 67514U 26012X   26047.83337963 -.00867340  00000+0 -32822-1 0  9992
2 67514  43.0010  72.2788 0000899 283.0452 343.2312 15.28980296  5662
STARLINK-36543          
1 67515U 26012Y   26047.83337963 -.03398479  00000+0 -12436+0 0  9995
2 67515  42.9998  72.2822 0001349 251.2045  14.1091 15.31379754  5664
STARLINK-36537          
1 67516U 26012Z   26047.83337963 -.03616452  00000+0 -13249+0 0  9993
2 67516  43.0000  72.1092 0001532 257.9887  76.9368 15.31616205  5668
